Prox-1
1 44339U 19036A   22006.54857398  .00001337  00000-0  26133-3 0  9993
2 44339  23.9997 134.6732 0010608 245.6977 114.2406 14.54056131134753
Oculus-ASR
1 44348U 19036K   22006.78390652  .00013618  00000-0  16439-3 0  9997
2 44348  28.5090 213.3891 0298099 320.0853  37.8171 15.20531524139798
Armadillo
1 44352U 19036P   22006.78936416  .00026260 -57876-5  25459-3 0  9994
2 44352  28.5258 171.7586 0247952  25.4151 335.8417 15.33829331140163
NO-104
1 44354U 19036R   22005.79921901  .00016102  00000-0  18883-3 0  9997
2 44354  28.5260 209.9699 0291958 323.0647  35.0168 15.22429649139749
NO-103
1 44355U 19036S   22006.56646509  .00067563 -50457-5  49500-3 0  9996
2 44355  28.5230 115.4446 0186837 116.5430 245.4454 15.51581298140740
Move-IIb
1 44398U 19038N   22006.57789995  .00004215  00000-0  22758-3 0  9997
2 44398  97.6093 335.1460 0022660 332.7825  27.2206 15.15073677138500
SONATE
1 44400U 19038Q   22006.57668506  .00001666  00000-0  97152-4 0  9993
2 44400  97.6179 334.7848 0023859 334.5270  25.4778 15.13164061138442
BeeSat 9
1 44412U 19038AC  22006.41395796  .00002163  00000-0  12128-3 0  9999
2 44412  97.6164 335.0888 0021011 339.2209  20.8166 15.14300136138153
JAISAT-1
1 44419U 19038F   22006.45091725  .00002649  00000-0  14579-3 0  9996
2 44419  97.6168 335.8346 0019830 336.8997  23.1342 15.14784527138516
LightSail-2
1 44420U 19036AC  22006.35475829  .00012093  00000-0  22224-2 0  9995
2 44420  24.0038 100.1796 0015240 320.1947  39.7428 14.63821682133208
Taurus 1
1 44530U 19059C   22006.85689777  .00001104  00000-0  31967-3 0  9992
2 44530  98.5491 103.9475 0012995 243.3304 116.6542 14.46410559122489
Duchifat 3
1 44854U 19089C   22006.26594363  .00001549  00000-0  12864-3 0  9993
2 44854  36.9646 340.9131 0008302 333.8560  26.1748 14.99949600113568
OPS-SAT
1 44878U 19092F   22006.76129668  .00002370  00000-0  12150-3 0  9991
2 44878  97.4744 192.4621 0013301 177.3465 182.7842 15.17475228113654
TO-108
1 44881U 19093C   22006.76512418  .00000219  00000-0  34671-4 0  9998
2 44881  97.9094  88.2123 0015089 357.9125   2.2015 14.81537434110837
FloripaSat 1
1 44885U 19093G   22006.79570844  .00000741  00000-0  98744-4 0  9993
2 44885  97.9119  89.1637 0014555   5.2163 354.9189 14.82550746110898
RS-44
1 44909U 19096E   22006.43190086  .00000019  00000-0  34216-4 0  9992
2 44909  82.5224 337.9364 0217103 338.8583  20.3645 12.79711971 94781
Phoenix
1 45258U 98067RB  22006.42100624  .00019545  00000-0  20516-3 0  9994
2 45258  51.6374  28.7172 0004294 314.5357  45.5287 15.64362126106886
QARMAN
1 45263U 98067RG  22006.47761961  .00151940  00000-0  54990-3 0  9991
2 45263  51.6313   7.1958 0005008  37.7916 322.3440 15.87609386107231
Quetzal 1
1 45598U 98067RL  22006.40521122  .00073860  00000-0  41024-3 0  9996
2 45598  51.6367  17.3337 0004721  48.0281 312.1121 15.78820999 96365
BY70-2
1 45857U 20042B   22006.83225960  .00002681  00000-0  37991-3 0  9991
2 45857  97.9703  85.4082 0009434 275.9475  84.0630 14.77838712 81572
UPMSat 2
1 46276U 20061E   22006.16129699  .00001184  00000-0  63336-4 0  9996
2 46276  97.4127  80.6823 0002452  56.0096 304.1371 15.16967134 74264
AmicalSat
1 46287U 20061R   22006.25199626  .00001402  00000-0  87428-4 0  9996
2 46287  97.4677  79.9090 0004123 108.9341 251.2337 15.11115991 73961
SALSAT
1 46495U 20068K   22006.56963551  .00001481  00000-0  11204-3 0  9999
2 46495  97.7118 308.0879 0018234 104.7216 255.6030 15.03771113 69855
BY70-3
1 46839U 20079N   22006.76648688  .00007120  00000-0  20527-3 0  9990
2 46839  97.2208  81.6184 0006254 183.1848 326.8794 15.35999449 65387
SPOC
1 46921U 98067RR  22006.31145446  .00017718  00000-0  20703-3 0  9999
2 46921  51.6395  40.0820 0001902  76.7746 283.3459 15.61681374 66475
Bobcat-1
1 46922U 98067RS  22006.32716432  .00037243  00000-0  32451-3 0  9998
2 46922  51.6409  33.4702 0002352  58.8455 301.2772 15.68626826 66527
Neutron-1
1 46923U 98067RT  22006.66364706  .00017435  00000-0  20449-3 0  9994
2 46923  51.6402  38.6866 0001638  84.8254 275.2927 15.61597388 66548
CAPE 3
1 47309U 21002A   22006.67206901  .00002069  00000-0  10081-3 0  9999
2 47309  60.6844 251.6302 0033196 157.0287 203.2293 15.21948037 53801
AO-109
1 47311U 21002C   22006.20688770  .00002045  00000-0  97749-4 0  9990
2 47311  60.6859 251.6724 0030290 150.8795 209.3989 15.22743924 53735
MiTEE 1
1 47314U 21002F   22006.36225215  .00003168  00000-0  13504-3 0  9994
2 47314  60.6830 247.7939 0032279 143.5469 216.7826 15.25109126 53833
ExoCube 2
1 47319U 21002L   22006.22773195  .00001874  00000-0  91582-4 0  9994
2 47319  60.6832 252.2981 0030493 154.8091 205.4491 15.22348823 53693
UVSQ-SAT
1 47438U 21006AB  22006.16086660  .00001568  00000-0  90099-4 0  9999
2 47438  97.4621  68.5346 0013973 115.1231 245.1452 15.13877201 52719
YUSAT 1
1 47439U 21006AC  22006.68644450  .00001478  00000-0  84865-4 0  9998
2 47439  97.4625  69.0706 0013812 113.7204 246.5478 15.13990897 52794
SOMP 2b
1 47445U 21006AJ  22006.39715709  .00001439  00000-0  83479-4 0  9996
2 47445  97.4596  68.5513 0013558 117.8111 242.4496 15.13671142 52746
IDEASSat
1 47458U 21006AX  22006.23016103  .00001603  00000-0  92924-4 0  9993
2 47458  97.4686  68.7316 0012654 116.3463 243.9069 15.13532157 52714
RSP-01
1 47925U 98067SB  22006.56366124  .00018848  00000-0  23940-3 0  9990
2 47925  51.6412  47.0089 0002675  48.9666 311.1557 15.59438352 46373
TAUSAT-1
1 47926U 98067SC  22006.67827491  .00025666  00000-0  28877-3 0  9992
2 47926  51.6399  44.0041 0003569  48.5625 311.5675 15.62399186 46412
Tsuru
1 47927U 98067SD  22006.37238205  .00016064  00000-0  21299-3 0  9992
2 47927  51.6405  48.7296 0002638  49.4481 310.6741 15.58424016 46331
STARS-EC
1 47928U 98067SE  22006.48433398  .00029608  00000-0  32649-3 0  9994
2 47928  51.6396  45.7108 0003057 116.8765 243.2542 15.62836238 46361
Maya-2
1 47929U 98067SF  22006.49625445  .00016208  00000-0  21481-3 0  9996
2 47929  51.6406  48.0542 0002740  48.2072 311.9154 15.58427528 46319
OPUSAT-II
1 47930U 98067SG  22006.71194669  .00034011  00000-0  36144-3 0  9996
2 47930  51.6392  43.4931 0003337  38.5448 321.5784 15.63708253 46430
GuaraniSat-1
1 47931U 98067SH  22006.36365188  .00015644  00000-0  20717-3 0  9994
2 47931  51.6415  48.6755 0002728  47.3089 312.8133 15.58479839 46339
CubeSX-Sirius-HSE
1 47951U 21022V   22006.79194073  .00001848  00000-0  12977-3 0  9993
2 47951  97.5461 269.7178 0021126 343.1060 102.3146 15.06198406 43654
CubeSX-HSE
1 47952U 21022W   22006.77560017  .00001716  00000-0  12071-3 0  9996
2 47952  97.5452 269.7121 0021023 343.3197  54.4342 15.06236303 43656
KSU-Cubesat
1 47954U 21022Y   22006.41917141  .00001418  00000-0  10020-3 0  9994
2 47954  97.5454 269.4132 0021038 343.2235  16.8294 15.06350878 43323
GRBAlpha
1 47959U 21022AD  22006.71760700  .00001733  00000-0  12182-3 0  9990
2 47959  97.5458 269.6776 0021023 343.7831 100.5543 15.06244966 42461
Orbicraft-Zorkiy
1 47960U 21022AE  22006.89921171  .00001338  00000-0  94838-4 0  9992
2 47960  97.5463 269.9302 0021203 343.0055  79.2844 15.06322694 43189
STECCO
1 47962U 21022AG  22006.82320525  .00002345  00000-0  15776-3 0  9995
2 47962  97.5428 270.2066 0016346 339.8570  92.5747 15.07614253 42502
DO-111
1 47963U 21022AH  22006.68372505  .00003990  00000-0  25591-3 0  9998
2 47963  97.5450 270.4140 0018457 334.8277  25.2051 15.08939856 42520
MO-110
1 47964U 21022AJ  22006.35924320  .00001624  00000-0  10955-3 0  9991
2 47964  97.5441 269.9006 0018908 336.6042  23.4324 15.07912303 42447
FEES
1 48082U 21022AL  22006.23529732  .00001750  00000-0  11850-3 0  9993
2 48082  97.5452 269.6474 0015095 335.9251  24.1270 15.07712831 42122
RamSat
1 48850U 98067SL  22006.74460073  .00010808  00000-0  16766-3 0  9992
2 48850  51.6414  51.9301 0003131 163.7726 196.3365 15.54556677 32073
MO-112
1 48868U 98067SP  22006.36840614  .00029631  00000-0  35614-3 0  9999
2 48868  51.6394  50.9149 0000856  92.2245 267.8847 15.60602305 30839
TUBIN
1 48900U 21059X   22006.89777859  .00001831  00000-0  10841-3 0  9998
2 48900  97.5324 137.9196 0009043 307.2343 166.6640 15.12650643 29482
IT-SPINS
1 49017U 21013G   22006.59003860  .00002414  00000-0  11298-3 0  9994
2 49017  51.5905  92.4757 0006789 202.4735 157.5945 15.23701759 29080
LEDSAT
1 49069U 21073D   22006.67694193  .00001382  00000-0  94407-4 0  9998
2 49069  97.5442  82.7825 0029174 126.5897 233.8022 15.07479266 21453
CUTE
1 49263U 21088D   22006.41974825  .00001204  00000-0  96611-4 0  9997
2 49263  97.6043  77.5735 0018581 258.0160 101.8982 15.01840612 15096
Binar-1
1 49272U 98067SR  22006.51390580  .00010690  00000-0  17582-3 0  9997
2 49272  51.6416  55.6254 0005459  66.9374 293.2191 15.52935008 14396
Maya-3
1 49273U 98067SS  22006.43253869  .00012915  00000-0  20577-3 0  9997
2 49273  51.6414  55.8328 0005371  62.2168 297.9367 15.53608725 14381
Maya-4
1 49274U 98067ST  22006.43547559  .00012789  00000-0  20432-3 0  9999
2 49274  51.6414  55.8523 0005314  61.1274 299.0249 15.53542187 14383
CUAVA-1
1 49275U 98067SU  22006.77383370  .00016149  00000-0  25685-3 0  9995
2 49275  51.6433  54.1280 0005172  75.8434  32.7572 15.53446893 14387
TeikyoSat 4
1 49396U 21102B   22006.50598486  .00000425  00000-0  38472-4 0  9991
2 49396  97.5540  69.4015 0018901  76.0013 284.3311 15.00287669  8761
Z-Sat
1 49399U 21102E   22006.77312600  .00000611  00000-0  50903-4 0  9995
2 49399  97.5642  69.8438 0021881  61.6580 298.6848 15.02033487  8818
KOSEN 1
1 49402U 21102H   22006.80508469 -.00000053  00000-0  53565-6 0  9994
2 49402  97.5531  69.9130 0023908  51.5082 308.8283 15.02900942  8824
HO-113
1 50466U 21131B   22006.79578638 -.00000007  00000-0  12265-4 0  9990
2 50466  98.5975  84.0261 0003444 269.7660  90.3127 14.38435547  1678
